[{"OBJECT_NAME":"STARLINK-6090","OBJECT_ID":"2023-046C","EPOCH":"2026-03-09T22:00:01.999584","MEAN_MOTION":15.06479853,"ECCENTRICITY":0.00016264,"INCLINATION":43.0008,"RA_OF_ASC_NODE":157.9822,"ARG_OF_PERICENTER":282.1189,"MEAN_ANOMALY":56.0647,"EPHEMERIS_TYPE":0,"CLASSIFICATION_TYPE":"U","NORAD_CAT_ID":56095,"ELEMENT_SET_NO":999,"REV_AT_EPOCH":577,"BSTAR":0.00017997304,"MEAN_MOTION_DOT":2.492e-5,"MEAN_MOTION_DDOT":0},{"OBJECT_NAME":"JILIN-01 KUANFU 02B 3","OBJECT_ID":"2024-169C","EPOCH":"2026-03-09T22:06:48.862368","MEAN_MOTION":15.0924242,"ECCENTRICITY":0.00160506,"INCLINATION":97.5557,"RA_OF_ASC_NODE":159.7436,"ARG_OF_PERICENTER":304.8201,"MEAN_ANOMALY":55.1517,"EPHEMERIS_TYPE":0,"CLASSIFICATION_TYPE":"U","NORAD_CAT_ID":61191,"ELEMENT_SET_NO":999,"REV_AT_EPOCH":8085,"BSTAR":0.00039569069,"MEAN_MOTION_DOT":6.253e-5,"MEAN_MOTION_DDOT":0}]
